NORAD_CAT_ID,OBJECT_NAME,OBJECT_TYPE,EPOCH,MEAN_MOTION,ECCENTRICITY,INCLINATION,RA_OF_ASC_NODE,ARG_OF_PERICENTER,MEAN_ANOMALY,BSTAR,MEAN_MOTION_DOT,MEAN_MOTION_DDOT,TLE_LINE0,TLE_LINE1,TLE_LINE2,SEMIMAJOR_AXIS,PERIOD,APOGEE,PERIGEE,DECAYED
52487.0,STARLINK-3902,PAYLOAD,2023-10-06 10:08:31,15.08837248,0.0001641,53.2179,63.3429,98.9157,261.2021,-2.38e-05,-6.67e-06,0.0,0 STARLINK-3902,1 52487U 22049AN  23279.42258226 -.00000667  00000-0 -23800-4 0  9995,2 52487  53.2179  63.3429 0001641  98.9157 261.2021 15.08837248 78907,6917.889,95.438,540.889,538.619,0.0
52487.0,STARLINK-3902,PAYLOAD,2023-10-06 13:19:17,15.08836794,0.0001646,53.2179,62.7481,99.806,260.3118,-3.0649e-06,-3.37e-06,0.0,0 STARLINK-3902,1 52487U 22049AN  23279.55506293 -.00000337  00000-0 -30649-5 0  9993,2 52487  53.2179  62.7481 0001646  99.8060 260.3118 15.08836794 80002,6917.89,95.438,540.894,538.617,0.0
52487.0,STARLINK-3902,PAYLOAD,2023-10-06 16:30:03,15.08843767,0.0001345,53.2176,62.1543,82.3904,277.7241,7.4126e-05,8.92e-06,0.0,0 STARLINK-3902,1 52487U 22049AN  23279.68754115  .00000892  00000-0  74126-4 0  9996,2 52487  53.2176  62.1543 0001345  82.3904 277.7241 15.08843767 80021,6917.869,95.437,540.664,538.803,0.0
52487.0,STARLINK-3902,PAYLOAD,2023-10-07 13:10:04,15.08843552,0.0001477,53.2181,58.2893,84.9237,275.1924,0.00027098,4.028e-05,0.0,0 STARLINK-3902,1 52487U 22049AN  23280.54866413  .00004028  00000-0  27098-3 0  9998,2 52487  53.2181  58.2893 0001477  84.9237 275.1924 15.08843552 80150,6917.87,95.437,540.756,538.713,0.0
52487.0,STARLINK-3902,PAYLOAD,2023-10-07 16:20:50,15.08853172,0.0001436,53.2178,57.6946,82.9339,277.1816,0.00042912,6.551e-05,0.0,0 STARLINK-3902,1 52487U 22049AN  23280.68114052  .00006551  00000-0  42912-3 0  9993,2 52487  53.2178  57.6946 0001436  82.9339 277.1816 15.08853172 79096,6917.84,95.437,540.699,538.712,0.0
52487.0,STARLINK-3902,PAYLOAD,2023-10-08 01:53:09,15.08844654,0.0001424,53.2172,55.9083,81.326,278.7894,0.00019828,2.869e-05,0.0,0 STARLINK-3902,1 52487U 22049AN  23281.07858243  .00002869  00000-0  19828-3 0  9992,2 52487  53.2172  55.9083 0001424  81.3260 278.7894 15.08844654 79151,6917.866,95.437,540.716,538.746,0.0
52487.0,STARLINK-3902,PAYLOAD,2023-10-08 09:50:05,15.0883342,0.0001447,53.2183,54.4238,88.0391,272.0767,-7.544e-05,-1.488e-05,0.0,0 STARLINK-3902,1 52487U 22049AN  23281.40978700 -.00001488  00000-0 -75440-4 0  9991,2 52487  53.2183  54.4238 0001447  88.0391 272.0767 15.08833420 79204,6917.901,95.438,540.767,538.764,0.0
52487.0,STARLINK-3902,PAYLOAD,2023-10-08 13:00:51,15.08839171,0.0001601,53.2188,53.8295,94.2259,265.8916,3.2249e-05,2.25e-06,0.0,0 STARLINK-3902,1 52487U 22049AN  23281.54226515  .00000225  00000-0  32249-4 0  9992,2 52487  53.2188  53.8295 0001601  94.2259 265.8916 15.08839171 80307,6917.883,95.438,540.855,538.64,0.0
52487.0,STARLINK-3902,PAYLOAD,2023-10-08 14:36:14,15.08841305,0.0001698,53.2188,53.5321,95.2752,264.8434,7.4347e-05,8.95e-06,0.0,0 STARLINK-3902,1 52487U 22049AN  23281.60850460  .00000895  00000-0  74347-4 0  9999,2 52487  53.2188  53.5321 0001698  95.2752 264.8434 15.08841305 79235,6917.876,95.437,540.916,538.567,0.0
52487.0,STARLINK-3902,PAYLOAD,2023-10-08 19:22:23,15.08850094,0.0001547,53.2174,52.6377,93.3093,266.8076,0.0002285,3.351e-05,0.0,0 STARLINK-3902,1 52487U 22049AN  23281.80722019  .00003351  00000-0  22850-3 0  9990,2 52487  53.2174  52.6377 0001547  93.3093 266.8076 15.08850094 80344,6917.85,95.437,540.785,538.644,0.0
52487.0,STARLINK-3902,PAYLOAD,2023-10-09 12:51:38,15.08838896,0.0001908,53.2187,49.3687,81.3736,278.7473,7.5896e-05,9.2e-06,0.0,0 STARLINK-3902,1 52487U 22049AN  23282.53586707  .00000920  00000-0  75896-4 0  9991,2 52487  53.2187  49.3687 0001908  81.3736 278.7473 15.08838896 80458,6917.884,95.438,541.069,538.429,0.0
52487.0,STARLINK-3902,PAYLOAD,2023-10-09 17:37:48,15.08845688,0.0002066,53.2196,48.4766,82.461,277.6617,0.00027178,4.041e-05,0.0,0 STARLINK-3902,1 52487U 22049AN  23282.73458566  .00004041  00000-0  27178-3 0  9991,2 52487  53.2196  48.4766 0002066  82.4610 277.6617 15.08845688 79403,6917.863,95.437,541.157,538.299,0.0
52487.0,STARLINK-3902,PAYLOAD,2023-10-10 12:42:26,15.08840372,0.0002388,53.2186,44.9079,107.2375,252.8879,0.0002757,4.102e-05,0.0,0 STARLINK-3902,1 52487U 22049AN  23283.52946894  .00004102  00000-0  27570-3 0  9999,2 52487  53.2186  44.9079 0002388 107.2375 252.8879 15.08840372 79524,6917.879,95.438,541.396,538.092,0.0
52487.0,STARLINK-3902,PAYLOAD,2023-10-10 14:17:49,15.08844043,0.0001793,53.2179,44.6088,100.5582,259.5612,0.00041804,6.372e-05,0.0,0 STARLINK-3902,1 52487U 22049AN  23283.59570857  .00006372  00000-0  41804-3 0  9995,2 52487  53.2179  44.6088 0001793 100.5582 259.5612 15.08844043 80618,6917.868,95.437,540.973,538.493,0.0
52487.0,STARLINK-3902,PAYLOAD,2023-10-10 15:53:12,15.08851216,0.0001555,53.2176,44.3117,92.3055,267.8115,0.00068602,0.0001065,0.0,0 STARLINK-3902,1 52487U 22049AN  23283.66194767  .00010650  00000-0  68602-3 0  9994,2 52487  53.2176  44.3117 0001555  92.3055 267.8115 15.08851216 80625,6917.846,95.437,540.787,538.635,0.0
52487.0,STARLINK-3902,PAYLOAD,2023-10-11 12:33:13,15.08848313,0.0001601,53.2189,40.449,80.0387,280.0785,0.0004886,7.498e-05,0.0,0 STARLINK-3902,1 52487U 22049AN  23284.52306998  .00007498  00000-0  48860-3 0  9991,2 52487  53.2189  40.4490 0001601  80.0387 280.0785 15.08848313 79671,6917.855,95.437,540.828,538.612,0.0
52487.0,STARLINK-3902,PAYLOAD,2023-10-11 14:08:36,15.08851755,0.0001689,53.2184,40.1491,100.6097,259.5086,0.00088368,0.00013808,0.0,0 STARLINK-3902,1 52487U 22049AN  23284.58930831  .00013808  00000-0  88368-3 0  9995,2 52487  53.2184  40.1491 0001689 100.6097 259.5086 15.08851755 80768,6917.844,95.437,540.878,538.541,0.0
52487.0,STARLINK-3902,PAYLOAD,2023-10-12 13:59:23,15.08851569,0.0001707,53.219,35.6895,85.6899,274.4288,0.00026162,3.879e-05,0.0,0 STARLINK-3902,1 52487U 22049AN  23285.58290770  .00003879  00000-0  26162-3 0  9998,2 52487  53.2190  35.6895 0001707  85.6899 274.4288 15.08851569 80915,6917.845,95.437,540.891,538.529,0.0
52487.0,STARLINK-3902,PAYLOAD,2023-10-12 17:10:09,15.08855973,0.0001694,53.218,35.0938,82.2687,277.8498,0.00065327,0.00010129,0.0,0 STARLINK-3902,1 52487U 22049AN  23285.71538585  .00010129  00000-0  65327-3 0  9994,2 52487  53.2180  35.0938 0001694  82.2687 277.8498 15.08855973 79853,6917.832,95.437,540.868,538.525,0.0
52487.0,STARLINK-3902,PAYLOAD,2023-10-13 12:14:47,15.08847114,0.0001499,53.2184,31.5262,77.1336,282.9824,0.00044639,6.825e-05,0.0,0 STARLINK-3902,1 52487U 22049AN  23286.51026905  .00006825  00000-0  44639-3 0  9992,2 52487  53.2184  31.5262 0001499  77.1336 282.9824 15.08847114 79976,6917.859,95.437,540.761,538.687,0.0
52487.0,STARLINK-3902,PAYLOAD,2023-10-13 13:50:10,15.08854886,0.0001501,53.2183,31.2284,80.6814,279.4348,0.00070502,0.00010955,0.0,0 STARLINK-3902,1 52487U 22049AN  23286.57650750  .00010955  00000-0  70502-3 0  9996,2 52487  53.2183  31.2284 0001501  80.6814 279.4348 15.08854886 81069,6917.835,95.437,540.738,538.662,0.0
52487.0,STARLINK-3902,PAYLOAD,2023-10-14 10:30:10,15.08862751,0.0001663,53.2187,27.3627,96.5276,263.5905,0.0012802,0.00020158,0.0,0 STARLINK-3902,1 52487U 22049AN  23287.43762314  .00020158  00000-0  12802-2 0  9996,2 52487  53.2187  27.3627 0001663  96.5276 263.5905 15.08862751 80115,6917.811,95.436,540.826,538.525,0.0
52487.0,STARLINK-3902,PAYLOAD,2023-10-14 13:40:56,15.08870794,0.0001408,53.2187,26.7687,80.5573,279.5578,0.0016786,0.0002655,0.0,0 STARLINK-3902,1 52487U 22049AN  23287.57010168  .00026550  00000-0  16786-2 0  9991,2 52487  53.2187  26.7687 0001408  80.5573 279.5578 15.08870794 81215,6917.786,95.436,540.625,538.677,0.0
52487.0,STARLINK-3902,PAYLOAD,2023-10-14 23:13:15,15.08850893,0.0001529,53.2194,24.9848,76.0964,284.0199,0.00073869,0.00011491,0.0,0 STARLINK-3902,1 52487U 22049AN  23287.96754361  .00011491  00000-0  73869-3 0  9998,2 52487  53.2194  24.9848 0001529  76.0964 284.0199 15.08850893 80194,6917.847,95.437,540.77,538.654,0.0
52487.0,STARLINK-3902,PAYLOAD,2023-10-15 13:31:44,15.08827759,0.00015,53.2191,22.3102,96.0908,264.0255,0.00037304,5.652e-05,0.0,0 STARLINK-3902,1 52487U 22049AN  23288.56371229  .00005652  00000-0  37304-3 0  9999,2 52487  53.2191  22.3102 0001500  96.0908 264.0255 15.08827759 80281,6917.918,95.438,540.82,538.745,0.0
52487.0,STARLINK-3902,PAYLOAD,2023-10-16 13:22:32,15.08853926,0.0001592,53.2179,17.8497,88.1174,272.0,0.001304,0.00020534,0.0,0 STARLINK-3902,1 52487U 22049AN  23289.55731756  .00020534  00000-0  13040-2 0  9990,2 52487  53.2179  17.8497 0001592  88.1174 272.0000 15.08853926 81510,6917.838,95.437,540.804,538.602,0.0
52487.0,STARLINK-3902,PAYLOAD,2023-10-17 11:37:56,15.08852474,0.0001608,53.2171,13.6863,87.9592,272.1584,0.00069641,0.00010816,0.0,0 STARLINK-3902,1 52487U 22049AN  23290.48467768  .00010816  00000-0  69641-3 0  9994,2 52487  53.2171  13.6863 0001608  87.9592 272.1584 15.08852474 80572,6917.842,95.437,540.82,538.595,0.0
52487.0,STARLINK-3902,PAYLOAD,2023-10-17 22:45:38,15.08846833,0.0001702,53.2168,11.6058,82.537,277.5816,0.00044923,6.87e-05,0.0,0 STARLINK-3902,1 52487U 22049AN  23290.94835829  .00006870  00000-0  44923-3 0  9993,2 52487  53.2168  11.6058 0001702  82.5370 277.5816 15.08846833 81729,6917.86,95.437,540.902,538.547,0.0
52487.0,STARLINK-3902,PAYLOAD,2023-10-18 11:28:43,15.08846106,0.0001661,53.216,9.2277,82.1603,277.9578,0.00023761,3.496e-05,0.0,0 STARLINK-3902,1 52487U 22049AN  23291.47827810  .00003496  00000-0  23761-3 0  9991,2 52487  53.2160   9.2277 0001661  82.1603 277.9578 15.08846106 80727,6917.862,95.437,540.876,538.578,0.0
52487.0,STARLINK-3902,PAYLOAD,2023-10-18 22:36:25,15.0884887,0.000198,53.2172,7.1453,85.2011,274.9208,0.00033339,5.023e-05,0.0,0 STARLINK-3902,1 52487U 22049AN  23291.94195735  .00005023  00000-0  33339-3 0  9997,2 52487  53.2172   7.1453 0001980  85.2011 274.9208 15.08848870 81878,6917.853,95.437,541.088,538.349,0.0
